STARLINK-31838          
1 60130U 24118T   26197.14107061 -.00000228  00000+0  44325-5 0  9996
2 60130  53.1600 149.3121 0001517  75.6169 284.5001 15.31697086115379
STARLINK-31785          
1 60131U 24118U   26197.19231004 -.00003937  00000+0 -11506-3 0  9991
2 60131  53.1587 148.9214 0001793  29.0923 331.0178 15.31728042115380
STARLINK-31792          
1 60132U 24118V   26197.12681075  .00002203  00000+0  86471-4 0  9999
2 60132  53.1602 147.7549 0001416  74.9550 285.1608 15.30202932115396
GOES 19                 
1 60133U 24119A   26197.25500961 -.00000259  00000+0  00000+0 0  9998
2 60133   0.0176 139.3391 0000391  63.8155 107.5396  1.00271307  7255
STARLINK-32043          
1 60135U 24120A   26196.96595124  .00000589  00000+0  28564-4 0  9999
2 60135  53.1609  82.8347 0001435  70.2583 289.8575 15.34391050116037
STARLINK-32112          
1 60136U 24120B   26196.96805367  .00000596  00000+0  28779-4 0  9999
2 60136  53.1606  82.8503 0001236  95.2171 264.8972 15.34394310116113
STARLINK-32050          
1 60137U 24120C   26197.08570738 -.00000100  00000+0  81662-5 0  9998
2 60137  53.1596  82.1615 0001361  80.7992 279.3164 15.34386497116052
STARLINK-32025          
1 60138U 24120D   26197.05835205  .00001796  00000+0  64331-4 0  9993
2 60138  53.1604  81.9880 0001297  87.2347 272.8804 15.34378711116057
STARLINK-31694          
1 60140U 24120F   26196.97438304  .00005588  00000+0  17646-3 0  9994
2 60140  53.1581  82.8905 0001186 127.0373 233.0738 15.34386106116110
STARLINK-32036          
1 60141U 24120G   26196.98068338  .00000344  00000+0  21314-4 0  9995
2 60141  53.1595  82.9284 0001178 102.8867 257.2267 15.34389475116114
STARLINK-32031          
1 60142U 24120H   26197.05625128  .00000472  00000+0  25113-4 0  9994
2 60142  53.1596  81.9802 0001262  76.4010 283.7133 15.34389393116138
STARLINK-32027          
1 60143U 24120J   26196.99531568  .00001314  00000+0  50028-4 0  9990
2 60143  53.1599  82.2651 0001228 100.6333 259.4808 15.34391352116124
STARLINK-32033          
1 60144U 24120K   26196.98489322  .00000406  00000+0  23149-4 0  9995
2 60144  53.1607  82.9578 0001334  97.7637 262.3517 15.34385849116035
STARLINK-32029          
1 60145U 24120L   26197.00584003  .00000663  00000+0  30769-4 0  9993
2 60145  53.1596  82.3711 0001213 112.2292 247.8839 15.34385593116044
STARLINK-32127          
1 60146U 24120M   26197.06680912 -.00004751  00000+0 -12978-3 0  9991
2 60146  53.1609  82.0431 0001367  82.7868 277.3290 15.34347700116054
STARLINK-32019          
1 60147U 24120N   26197.06887483  .00001247  00000+0  48055-4 0  9995
2 60147  53.1597  82.0553 0001243 100.7722 259.3421 15.34389268116050
STARLINK-32021          
1 60148U 24120P   26197.14068789  .00000709  00000+0  34616-4 0  9995
2 60148  53.1606  72.5494 0001228  97.4708 262.6433 15.31708063116278
STARLINK-32022          
1 60149U 24120Q   26196.95963638  .00000741  00000+0  33059-4 0  9997
2 60149  53.1605  82.7897 0001388  77.4036 282.7122 15.34393419116116
STARLINK-32014          
1 60150U 24120R   26196.97857956  .00000655  00000+0  30526-4 0  9996
2 60150  53.1607  82.9126 0001425 100.2267 259.8897 15.34386888116037
STARLINK-32004          
1 60151U 24120S   26196.97227445 -.00001720  00000+0 -39801-4 0  9992
2 60151  53.1615  82.8738 0001430  94.8135 265.3031 15.34390442116115
STARLINK-32147          
1 60152U 24120T   26196.89660836  .00000790  00000+0  34529-4 0  9995
2 60152  53.1599  83.1106 0001458  84.9287 275.1882 15.34390468116029
STARLINK-32131          
1 60153U 24120U   26197.06466509  .00000823  00000+0  35507-4 0  9991
2 60153  53.1595  82.0287 0001076  83.9301 276.1825 15.34389806116130
STARLINK-32145          
1 60154U 24120V   26197.06256180  .00002212  00000+0  76606-4 0  9993
2 60154  53.1596  82.0116 0001530  54.7187 305.3959 15.34393775116050
STARLINK-32137          
1 60155U 24120W   26196.95332776 -.00011817  00000+0 -33902-3 0  9991
2 60155  53.1588  82.7554 0001871 110.3062 249.8141 15.34410455116032
STARLINK-32048          
1 60156U 24120X   26196.94699747  .00002988  00000+0  99504-4 0  9993
2 60156  53.1606  82.7107 0001369  87.9939 272.1220 15.34407012116034
STARLINK-32129          
1 60157U 24120Y   26196.94912609  .00000168  00000+0  16132-4 0  9993
2 60157  53.1598  82.7286 0001607  78.3264 281.7918 15.34383220116116
ZHONGXING-3A            
1 60179U 24122A   26196.79104245 -.00000324  00000+0  00000+0 0  9998
2 60179   0.0284 118.0048 0001717  49.1090 152.8803  1.00270068  7592
ALOS-4 (DAICHI-4)       
1 60182U 24123A   26197.24065476  .00001668  00000+0  23019-3 0  9996
2 60182  97.9221 293.9995 0001562  96.0526 264.0863 14.79471607110172
STARLINK-11168 [DTC]    
1 60183U 24124A   26196.40051151  .00000175  00000+0  62989-5 0  9993
2 60183  53.1581 251.6066 0000948  74.0938 286.0185 15.69698233117787
STARLINK-11187 [DTC]    
1 60184U 24124B   26197.15963009  .00000649  00000+0  10210-4 0  9996
2 60184  53.1584 247.8065 0001036  88.0731 272.0406 15.69712470116715
