OBJECT_NAME,OBJECT_ID,EPOCH,MEAN_MOTION,ECCENTRICITY,INCLINATION,RA_OF_ASC_NODE,ARG_OF_PERICENTER,MEAN_ANOMALY,EPHEMERIS_TYPE,CLASSIFICATION_TYPE,NORAD_CAT_ID,ELEMENT_SET_NO,REV_AT_EPOCH,BSTAR,MEAN_MOTION_DOT,MEAN_MOTION_DDOT
STARLINK-31838,2024-118T,2026-07-16T03:23:08.500704,15.31697086,.00015175,53.1600,149.3121,75.6169,284.5001,0,U,60130,999,11537,.4432526E-5,-.228E-5,0
STARLINK-31785,2024-118U,2026-07-16T04:36:55.587456,15.31728042,.00017933,53.1587,148.9214,29.0923,331.0178,0,U,60131,999,11538,-.11505905E-3,-.3937E-4,0
STARLINK-31792,2024-118V,2026-07-16T03:02:36.448800,15.30202932,.00014163,53.1602,147.7549,74.9550,285.1608,0,U,60132,999,11539,.86471017E-4,.2203E-4,0
GOES 19,2024-119A,2026-07-16T06:07:12.830304,1.00271307,.00003914,0.0176,139.3391,63.8155,107.5396,0,U,60133,999,725,0,-.259E-5,0
STARLINK-32043,2024-120A,2026-07-15T23:10:58.187136,15.34391050,.00014354,53.1609,82.8347,70.2583,289.8575,0,U,60135,999,11603,.28564028E-4,.589E-5,0
STARLINK-32112,2024-120B,2026-07-15T23:13:59.837088,15.34394310,.00012368,53.1606,82.8503,95.2171,264.8972,0,U,60136,999,11611,.28778843E-4,.596E-5,0
STARLINK-32050,2024-120C,2026-07-16T02:03:25.117632,15.34386497,.0001361,53.1596,82.1615,80.7992,279.3164,0,U,60137,999,11605,.8166186E-5,-.1E-5,0
STARLINK-32025,2024-120D,2026-07-16T01:24:01.617120,15.34378711,.00012972,53.1604,81.9880,87.2347,272.8804,0,U,60138,999,11605,.64330744E-4,.1796E-4,0
STARLINK-31694,2024-120F,2026-07-15T23:23:06.694656,15.34386106,.00011868,53.1581,82.8905,127.0373,233.0738,0,U,60140,999,11611,.17646155E-3,.5588E-4,0
STARLINK-32036,2024-120G,2026-07-15T23:32:11.044032,15.34389475,.00011784,53.1595,82.9284,102.8867,257.2267,0,U,60141,999,11611,.21314483E-4,.344E-5,0
STARLINK-32031,2024-120H,2026-07-16T01:21:00.110592,15.34389393,.00012625,53.1596,81.9802,76.4010,283.7133,0,U,60142,999,11613,.25113315E-4,.472E-5,0
STARLINK-32027,2024-120J,2026-07-15T23:53:15.274752,15.34391352,.00012289,53.1599,82.2651,100.6333,259.4808,0,U,60143,999,11612,.50027537E-4,.1314E-4,0
STARLINK-32033,2024-120K,2026-07-15T23:38:14.774208,15.34385849,.00013342,53.1607,82.9578,97.7637,262.3517,0,U,60144,999,11603,.23148944E-4,.406E-5,0
STARLINK-32029,2024-120L,2026-07-16T00:08:24.578592,15.34385593,.00012132,53.1596,82.3711,112.2292,247.8839,0,U,60145,999,11604,.30769267E-4,.663E-5,0
STARLINK-32127,2024-120M,2026-07-16T01:36:12.307968,15.34347700,.00013673,53.1609,82.0431,82.7868,277.3290,0,U,60146,999,11605,-.12978254E-3,-.4751E-4,0
STARLINK-32019,2024-120N,2026-07-16T01:39:10.785312,15.34389268,.00012438,53.1597,82.0553,100.7722,259.3421,0,U,60147,999,11605,.48054681E-4,.1247E-4,0
STARLINK-32021,2024-120P,2026-07-16T03:22:35.433696,15.31708063,.00012282,53.1606,72.5494,97.4708,262.6433,0,U,60148,999,11627,.34615518E-4,.709E-5,0
STARLINK-32022,2024-120Q,2026-07-15T23:01:52.583232,15.34393419,.00013881,53.1605,82.7897,77.4036,282.7122,0,U,60149,999,11611,.33058737E-4,.741E-5,0
STARLINK-32014,2024-120R,2026-07-15T23:29:09.273984,15.34386888,.00014256,53.1607,82.9126,100.2267,259.8897,0,U,60150,999,11603,.305257E-4,.655E-5,0
STARLINK-32004,2024-120S,2026-07-15T23:20:04.512480,15.34390442,.00014306,53.1615,82.8738,94.8135,265.3031,0,U,60151,999,11611,-.39800704E-4,-.172E-4,0
STARLINK-32147,2024-120T,2026-07-15T21:31:06.962304,15.34390468,.0001458,53.1599,83.1106,84.9287,275.1882,0,U,60152,999,11602,.34529E-4,.79E-5,0
STARLINK-32131,2024-120U,2026-07-16T01:33:07.063776,15.34389806,.00010765,53.1595,82.0287,83.9301,276.1825,0,U,60153,999,11613,.35506826E-4,.823E-5,0
STARLINK-32145,2024-120V,2026-07-16T01:30:05.339520,15.34393775,.00015304,53.1596,82.0116,54.7187,305.3959,0,U,60154,999,11605,.76605688E-4,.2212E-4,0
STARLINK-32137,2024-120W,2026-07-15T22:52:47.518464,15.34410455,.00018712,53.1588,82.7554,110.3062,249.8141,0,U,60155,999,11603,-.33902019E-3,-.11817E-3,0
STARLINK-32048,2024-120X,2026-07-15T22:43:40.581408,15.34407012,.0001369,53.1606,82.7107,87.9939,272.1220,0,U,60156,999,11603,.99504E-4,.2988E-4,0
STARLINK-32129,2024-120Y,2026-07-15T22:46:44.494176,15.34383220,.0001607,53.1598,82.7286,78.3264,281.7918,0,U,60157,999,11611,.16132E-4,.168E-5,0
ZHONGXING-3A,2024-122A,2026-07-15T18:59:06.067680,1.00270068,.0001717,0.0284,118.0048,49.1090,152.8803,0,U,60179,999,759,0,-.324E-5,0
ALOS-4 (DAICHI-4),2024-123A,2026-07-16T05:46:32.571264,14.79471607,.0001562,97.9221,293.9995,96.0526,264.0863,0,U,60182,999,11017,.23018894E-3,.1668E-4,0
STARLINK-11168 [DTC],2024-124A,2026-07-15T09:36:44.194464,15.69698233,.00009483,53.1581,251.6066,74.0938,286.0185,0,U,60183,999,11778,.6298896E-5,.175E-5,0
STARLINK-11187 [DTC],2024-124B,2026-07-16T03:49:52.039776,15.69712470,.00010363,53.1584,247.8065,88.0731,272.0406,0,U,60184,999,11671,.10210296E-4,.649E-5,0
